ONEWEB-0168             
1 48068U 21025AC  23349.93474808 -.00000151  00000+0 -44724-3 0  9992
2 48068  87.8992 142.1491 0001648 100.1656 259.9659 13.13466868133548
ONEWEB-0173             
1 48069U 21025AD  23349.92683649  .00000330  00000+0  86890-3 0  9994
2 48069  87.8960 142.1624 0001926  92.1007 268.0342 13.13467060133782
ONEWEB-0171             
1 48070U 21025AE  23349.96335095  .00000239  00000+0  62032-3 0  9999
2 48070  87.8984 142.1913 0001663 106.3710 253.7602 13.13472124133606
ONEWEB-0172             
1 48071U 21025AF  23349.94270091  .00000154  00000+0  38777-3 0  9997
2 48071  87.8981 142.1617 0001685 105.0295 255.1020 13.13469664134496
ONEWEB-0174             
1 48072U 21025AG  23350.00140539 -.00000553  00000+0 -15494-2 0  9995
2 48072  87.8982 142.1655 0001476  91.8801 268.2497 13.13469683133823
ONEWEB-0175             
1 48073U 21025AH  23350.48706319  .00000611  00000+0  16369-2 0  9997
2 48073  87.8985 142.0656 0001500 115.7644 244.3640 13.13469977133546
ONEWEB-0177             
1 48074U 21025AJ  23350.42359264  .00000390  00000+0  10341-2 0  9993
2 48074  87.8988 142.0834 0001984  95.0397 265.0958 13.13472398133722
ONEWEB-0178             
1 48075U 21025AK  23349.90791977 -.00000170  00000+0 -50013-3 0  9995
2 48075  87.8995 142.1910 0001776  97.9341 262.1990 13.13467490133705
